start=new Date('2022-04-14T00:00:00.000Z').valueOf();
sats=[{"TLE_LINE2":"2 45541  53.0558  29.1018 0001601  60.8154 299.2995 15.06409461109540","BSTAR":"0.00012268000000","EPHEMERIS_TYPE":"0","CENTER_NAME":"EARTH","ECCENTRICITY":"0.00016010","DECAY_DATE":null,"REF_FRAME":"TEME","MEAN_MOTION_DDOT":"0.0000000000000","CLASSIFICATION_TYPE":"U","EPOCH":"2022-04-13T11:34:34.496544","LAUNCH_DATE":"2020-04-22","SITE":"AFETR","INCLINATION":"53.0558","REV_AT_EPOCH":"10954","COUNTRY_CODE":"US","RA_OF_ASC_NODE":"29.1018","TIME_SYSTEM":"UTC","OBJECT_TYPE":"PAYLOAD","NORAD_CAT_ID":"45541","APOAPSIS":"548.293","RCS_SIZE":"LARGE","GP_ID":"201108893","MEAN_ELEMENT_THEORY":"SGP4","MEAN_MOTION":"15.06409461","ELEMENT_SET_NO":"999","ARG_OF_PERICENTER":"60.8154","OBJECT_ID":"2020-025L","SEMIMAJOR_AXIS":"6925.320","PERIAPSIS":"546.076","PERIOD":"95.592","FILE":"3399442","TLE_LINE1":"1 45541U 20025L   22103.48234371  .00001547  00000-0  12268-3 0  9997","MEAN_MOTION_DOT":"0.00001547","OBJECT_NAME":"STARLINK-1369","MEAN_ANOMALY":"299.2995"},{"GP_ID":"201149442","RCS_SIZE":"LARGE","APOAPSIS":"548.380","NORAD_CAT_ID":"45542","OBJECT_TYPE":"PAYLOAD","RA_OF_ASC_NODE":"28.9684","TIME_SYSTEM":"UTC","COUNTRY_CODE":"US","REV_AT_EPOCH":"10954","MEAN_ANOMALY":"292.4435","OBJECT_NAME":"STARLINK-1371","MEAN_MOTION_DOT":"0.00000166","TLE_LINE1":"1 45542U 20025M   22103.51553260  .00000166  00000-0  30026-4 0  9992","FILE":"3400182","PERIAPSIS":"546.135","SEMIMAJOR_AXIS":"6925.392","PERIOD":"95.593","ARG_OF_PERICENTER":"67.6726","OBJECT_ID":"2020-025M","ELEMENT_SET_NO":"999","MEAN_MOTION":"15.06385742","MEAN_ELEMENT_THEORY":"SGP4","REF_FRAME":"TEME","DECAY_DATE":null,"ECCENTRICITY":"0.00016210","CENTER_NAME":"EARTH","EPHEMERIS_TYPE":"0","TLE_LINE2":"2 45542  53.0569  28.9684 0001621  67.6726 292.4435 15.06385742109540","BSTAR":"0.00003002600000","INCLINATION":"53.0569","SITE":"AFETR","LAUNCH_DATE":"2020-04-22","EPOCH":"2022-04-13T12:22:22.016640","CLASSIFICATION_TYPE":"U","MEAN_MOTION_DDOT":"0.0000000000000"},{"CLASSIFICATION_TYPE":"U","MEAN_MOTION_DDOT":"0.0000000000000","LAUNCH_DATE":"2020-04-22","SITE":"AFETR","EPOCH":"2022-04-13T11:39:54.186048","INCLINATION":"53.0573","EPHEMERIS_TYPE":"0","CENTER_NAME":"EARTH","TLE_LINE2":"2 45543  53.0573  29.0960 0001756  52.9979 307.1171 15.06392075109549","BSTAR":"0.00000677550000","REF_FRAME":"TEME","DECAY_DATE":null,"ECCENTRICITY":"0.00017560","ELEMENT_SET_NO":"999","MEAN_ELEMENT_THEORY":"SGP4","MEAN_MOTION":"15.06392075","FILE":"3399482","ARG_OF_PERICENTER":"52.9979","OBJECT_ID":"2020-025N","PERIAPSIS":"546.022","SEMIMAJOR_AXIS":"6925.373","PERIOD":"95.593","TLE_LINE1":"1 45543U 20025N   22103.48604382 -.00000181  00000-0  67755-5 0  9999","MEAN_MOTION_DOT":"-0.00000181","OBJECT_NAME":"STARLINK-1372","MEAN_ANOMALY":"307.1171","REV_AT_EPOCH":"10954","COUNTRY_CODE":"US","OBJECT_TYPE":"PAYLOAD","NORAD_CAT_ID":"45543","TIME_SYSTEM":"UTC","RA_OF_ASC_NODE":"29.0960","RCS_SIZE":"LARGE","GP_ID":"201109376","APOAPSIS":"548.454"},{"REF_FRAME":"TEME","DECAY_DATE":null,"ECCENTRICITY":"0.00015230","CENTER_NAME":"EARTH","EPHEMERIS_TYPE":"0","BSTAR":"0.00040775000000","TLE_LINE2":"2 45544  53.0560  29.0192 0001523  90.3313 269.7851 15.06380745110139","SITE":"AFETR","LAUNCH_DATE":"2020-04-22","EPOCH":"2022-04-13T12:06:26.718624","CLASSIFICATION_TYPE":"U","MEAN_MOTION_DDOT":"0.0000000000000","INCLINATION":"53.0560","COUNTRY_CODE":"US","REV_AT_EPOCH":"11013","GP_ID":"201139948","RCS_SIZE":"LARGE","APOAPSIS":"548.327","NORAD_CAT_ID":"45544","OBJECT_TYPE":"PAYLOAD","RA_OF_ASC_NODE":"29.0192","TIME_SYSTEM":"UTC","FILE":"3399963","SEMIMAJOR_AXIS":"6925.408","PERIAPSIS":"546.218","PERIOD":"95.593","OBJECT_ID":"2020-025P","ARG_OF_PERICENTER":"90.3313","ELEMENT_SET_NO":"999","MEAN_MOTION":"15.06380745","MEAN_ELEMENT_THEORY":"SGP4","MEAN_ANOMALY":"269.7851","OBJECT_NAME":"STARLINK-1373","MEAN_MOTION_DOT":"0.00005794","TLE_LINE1":"1 45544U 20025P   22103.50447591  .00005794  00000-0  40775-3 0  9995"},{"RCS_SIZE":"LARGE","GP_ID":"201173748","APOAPSIS":"548.260","OBJECT_TYPE":"PAYLOAD","NORAD_CAT_ID":"45545","RA_OF_ASC_NODE":"27.7335","TIME_SYSTEM":"UTC","COUNTRY_CODE":"US","REV_AT_EPOCH":"11015","MEAN_MOTION_DOT":"-0.00009193","OBJECT_NAME":"STARLINK-1374","MEAN_ANOMALY":"294.6582","TLE_LINE1":"1 45545U 20025Q   22103.78825777 -.00009193  00000-0 -59842-3 0  9996","FILE":"3400454","ARG_OF_PERICENTER":"65.4582","OBJECT_ID":"2020-025Q","PERIAPSIS":"545.932","SEMIMAJOR_AXIS":"6925.231","PERIOD":"95.590","ELEMENT_SET_NO":"999","MEAN_ELEMENT_THEORY":"SGP4","MEAN_MOTION":"15.06438295","REF_FRAME":"TEME","ECCENTRICITY":"0.00016810","DECAY_DATE":null,"EPHEMERIS_TYPE":"0","CENTER_NAME":"EARTH","TLE_LINE2":"2 45545  53.0548  27.7335 0001681  65.4582 294.6582 15.06438295110150","BSTAR":"-0.00059842000000","INCLINATION":"53.0548","LAUNCH_DATE":"2020-04-22","SITE":"AFETR","EPOCH":"2022-04-13T18:55:05.471328","CLASSIFICATION_TYPE":"U","MEAN_MOTION_DDOT":"0.0000000000000"},{"MEAN_ANOMALY":"283.4328","OBJECT_NAME":"STARLINK-1375","MEAN_MOTION_DOT":"0.00001224","TLE_LINE1":"1 45546U 20025R   22103.20222421  .00001224  00000-0  10105-3 0  9995","PERIAPSIS":"546.163","SEMIMAJOR_AXIS":"6925.376","PERIOD":"95.593","ARG_OF_PERICENTER":"76.6835","OBJECT_ID":"2020-025R","FILE":"3399963","MEAN_MOTION":"15.06391017","MEAN_ELEMENT_THEORY":"SGP4","ELEMENT_SET_NO":"999","APOAPSIS":"548.319","GP_ID":"201138952","RCS_SIZE":"LARGE","RA_OF_ASC_NODE":"30.3640","TIME_SYSTEM":"UTC","NORAD_CAT_ID":"45546","OBJECT_TYPE":"PAYLOAD","COUNTRY_CODE":"US","REV_AT_EPOCH":"11008","INCLINATION":"53.0578","EPOCH":"2022-04-13T04:51:12.171744","SITE":"AFETR","LAUNCH_DATE":"2020-04-22","MEAN_MOTION_DDOT":"0.0000000000000","CLASSIFICATION_TYPE":"U","DECAY_DATE":null,"ECCENTRICITY":"0.00015570","REF_FRAME":"TEME","BSTAR":"0.00010105000000","TLE_LINE2":"2 45546  53.0578  30.3640 0001557  76.6835 283.4328 15.06391017110086","CENTER_NAME":"EARTH","EPHEMERIS_TYPE":"0"},{"FILE":"3400065","OBJECT_ID":"2020-025S","ARG_OF_PERICENTER":"76.9314","PERIAPSIS":"546.116","SEMIMAJOR_AXIS":"6925.336","PERIOD":"95.592","ELEMENT_SET_NO":"999","MEAN_ELEMENT_THEORY":"SGP4","MEAN_MOTION":"15.06404253","MEAN_MOTION_DOT":"0.00003340","MEAN_ANOMALY":"283.1850","OBJECT_NAME":"STARLINK-1377","TLE_LINE1":"1 45547U 20025S   22103.53026326  .00003340  00000-0  24302-3 0  9993","COUNTRY_CODE":"US","REV_AT_EPOCH":"10955","RCS_SIZE":"LARGE","GP_ID":"201146141","APOAPSIS":"548.285","OBJECT_TYPE":"PAYLOAD","NORAD_CAT_ID":"45547","RA_OF_ASC_NODE":"28.8897","TIME_SYSTEM":"UTC","LAUNCH_DATE":"2020-04-22","SITE":"AFETR","EPOCH":"2022-04-13T12:43:34.745664","CLASSIFICATION_TYPE":"U","MEAN_MOTION_DDOT":"0.0000000000000","INCLINATION":"53.0580","REF_FRAME":"TEME","DECAY_DATE":null,"ECCENTRICITY":"0.00015660","EPHEMERIS_TYPE":"0","CENTER_NAME":"EARTH","BSTAR":"0.00024302000000","TLE_LINE2":"2 45547  53.0580  28.8897 0001566  76.9314 283.1850 15.06404253109555"},{"ECCENTRICITY":"0.00014610","DECAY_DATE":null,"REF_FRAME":"TEME","TLE_LINE2":"2 45548  53.0555  27.8948 0001461  60.6423 299.4711 15.06407660110169","BSTAR":"0.00048116000000","CENTER_NAME":"EARTH","EPHEMERIS_TYPE":"0","EPOCH":"2022-04-13T18:07:20.911296","SITE":"AFETR","LAUNCH_DATE":"2020-04-22","MEAN_MOTION_DDOT":"0.0000000000000","CLASSIFICATION_TYPE":"U","INCLINATION":"53.0555","COUNTRY_CODE":"US","REV_AT_EPOCH":"11016","APOAPSIS":"548.202","GP_ID":"201172997","RCS_SIZE":"LARGE","TIME_SYSTEM":"UTC","RA_OF_ASC_NODE":"27.8948","NORAD_CAT_ID":"45548","OBJECT_TYPE":"PAYLOAD","PERIAPSIS":"546.178","PERIOD":"95.592","SEMIMAJOR_AXIS":"6925.325","ARG_OF_PERICENTER":"60.6423","OBJECT_ID":"2020-025T","FILE":"3400454","MEAN_MOTION":"15.06407660","MEAN_ELEMENT_THEORY":"SGP4","ELEMENT_SET_NO":"999","MEAN_ANOMALY":"299.4711","OBJECT_NAME":"STARLINK-1378","MEAN_MOTION_DOT":"0.00006894","TLE_LINE1":"1 45548U 20025T   22103.75510314  .00006894  00000-0  48116-3 0  9999"},{"EPHEMERIS_TYPE":"0","CENTER_NAME":"EARTH","TLE_LINE2":"2 45550  53.0564  29.0114 0001501  76.6858 283.4298 15.06402981109538","BSTAR":"0.00006058400000","REF_FRAME":"TEME","DECAY_DATE":null,"ECCENTRICITY":"0.00015010","INCLINATION":"53.0564","CLASSIFICATION_TYPE":"U","MEAN_MOTION_DDOT":"0.0000000000000","LAUNCH_DATE":"2020-04-22","SITE":"AFETR","EPOCH":"2022-04-13T12:10:22.113696","OBJECT_TYPE":"PAYLOAD","NORAD_CAT_ID":"45550","RA_OF_ASC_NODE":"29.0114","TIME_SYSTEM":"UTC","RCS_SIZE":"LARGE","GP_ID":"201146165","APOAPSIS":"548.244","REV_AT_EPOCH":"10953","COUNTRY_CODE":"US","TLE_LINE1":"1 45550U 20025V   22103.50720039  .00000621  00000-0  60584-4 0  9998","MEAN_MOTION_DOT":"0.00000621","MEAN_ANOMALY":"283.4298","OBJECT_NAME":"STARLINK-1390","ELEMENT_SET_NO":"999","MEAN_ELEMENT_THEORY":"SGP4","MEAN_MOTION":"15.06402981","FILE":"3400063","ARG_OF_PERICENTER":"76.6858","OBJECT_ID":"2020-025V","PERIOD":"95.592","PERIAPSIS":"546.165","SEMIMAJOR_AXIS":"6925.339"},{"EPHEMERIS_TYPE":"0","CENTER_NAME":"EARTH","TLE_LINE2":"2 45551  53.0548   7.4933 0001448  68.4631 291.6512 15.06396103110460","BSTAR":"0.00014154000000","REF_FRAME":"TEME","ECCENTRICITY":"0.00014480","DECAY_DATE":null,"CLASSIFICATION_TYPE":"U","MEAN_MOTION_DDOT":"0.0000000000000","LAUNCH_DATE":"2020-04-22","SITE":"AFETR","EPOCH":"2022-04-13T20:12:04.748832","INCLINATION":"53.0548","REV_AT_EPOCH":"11046","COUNTRY_CODE":"US","OBJECT_TYPE":"PAYLOAD","NORAD_CAT_ID":"45551","TIME_SYSTEM":"UTC","RA_OF_ASC_NODE":"7.4933","RCS_SIZE":"LARGE","GP_ID":"201171996","APOAPSIS":"548.228","ELEMENT_SET_NO":"999","MEAN_ELEMENT_THEORY":"SGP4","MEAN_MOTION":"15.06396103","FILE":"3400454","ARG_OF_PERICENTER":"68.4631","OBJECT_ID":"2020-025W","SEMIMAJOR_AXIS":"6925.361","PERIAPSIS":"546.223","PERIOD":"95.592","TLE_LINE1":"1 45551U 20025W   22103.84172163  .00001827  00000-0  14154-3 0  9995","MEAN_MOTION_DOT":"0.00001827","MEAN_ANOMALY":"291.6512","OBJECT_NAME":"STARLINK-1294"}];
